[{"venue_id":"v_1","name":"Grinton Lodge Youth Hostel","postcode":"DL11 6HS","town":"Richmond","url":"http://www.yha.org.uk/hostel/grinton-lodge","icon":"http://www.yha.org.uk/sites/all/themes/yha/images/logos/yha_header_logo.png","_id":"0711918c-b10e-4623-a5c9-ebd439d3d2bb"},{"venue_id":"v_1","name":"Grinton Lodge Youth Hostel","postcode":"DL11 6HS","town":"Richmond","url":"http://www.yha.org.uk/hostel/grinton-lodge","icon":"http://www.yha.org.uk/sites/all/themes/yha/images/logos/yha_header_logo.png","_id":"37453cfe-cd94-4e2f-ba45-cf8b4482ad65"},{"venue_id":"v_1","name":"Grinton Lodge Youth Hostel","postcode":"DL11 6HS","town":"Richmond","url":"http://www.yha.org.uk/hostel/grinton-lodge","icon":"http://www.yha.org.uk/sites/all/themes/yha/images/logos/yha_header_logo.png","_id":"a467c23d-04fb-44a7-a7e5-267acc0424b0"},{"venue_id":"v_2","name":"Sage Gateshead","postcode":"NE8 2JR","town":"Gateshead","url":"http://www.sagegateshead.com/","icon":"http://www.sagegateshead.com/files/images/pageimage/1683.7123dea7/630x397.fitandcrop.jpg","_id":"de7b94b2-834c-46ba-91ff-7d09a3d0c7f2"},{"venue_id":"4d10b66b-d995-48a6-b3d5-9281c45b46e6","name":"sdfsdf","postcode":"sdfsdf","town":"sdfsdf","url":"sdfsdf","icon":"sdfsdf","_id":"15e15345-c872-43f9-98dc-5c44da1765a6"},{"venue_id":"991e7f87-d80c-43b5-97f0-2a6daccaa819","name":"AAAAA","postcode":"AAAAA","town":"AAAAA","url":"AAAAA","icon":"AAAAA","_id":"0259741d-602e-4077-a9df-124a687425e3"},{"venue_id":"9e8eabaf-5a01-40dc-adef-0de785df2db6","name":"BBB","postcode":"BBB","town":"BBB","url":"BBB","icon":"BBBB","_id":"1e814d91-672f-485a-acd4-4f64770b9a1a"},{"venue_id":"2ad4ce52-28e4-4d43-b172-10eff51ee0c2","name":"CCCC","postcode":"CCCC","town":"CCCC","url":"CCCC","icon":"CCCC","_id":"0cf2eea5-6e9c-49f3-ba6d-bd9929c96b2f"},{"venue_id":"0822bd21-6e87-4fc8-9f55-7504567f4291","name":"fdsdf","postcode":"sdfsdf","town":"sdfsd","url":"sdfsdf","icon":"sdfsdf","_id":"479a7a38-3804-44a9-a093-4c1181593078"},{"venue_id":"c130b85b-d236-4c64-9f33-4c904298b505","name":"DDD","postcode":"DDD","town":"DDD","url":"DDD","icon":"DDD","_id":"24c65a1c-2d07-484e-ad3d-df5c9934be19"},{"venue_id":"83d35bce-b014-49dd-bfa4-ecf76a25c83f","name":"FFF","postcode":"FFF","town":"FFF","url":"FFF","icon":"FFF","_id":"a578c930-f707-4281-966c-56f0050dfeae"},{"venue_id":"c23e9705-31db-4357-bbe6-5b9258aaf532","name":"jack","postcode":"jack","town":"jack","url":"jack","icon":"jack","_id":"731ae7bc-af0e-4d19-9f11-a43a706dd43f"},{"venue_id":"3af6b6f8-d6ac-446f-a4f2-9da0dcbeeaa3","name":"tom","postcode":"tom","town":"tom","url":"tom","icon":"tom","_id":"8db3aa43-8228-434e-86b1-e11516008016"},{"venue_id":"8acee241-0184-42e5-8196-63ddf3152fac","name":"j","postcode":"tom","town":"tom","url":"tom","icon":"tom","_id":"7dde7041-3fb6-4a89-bcf6-c773a0c8fc29"}]